{
  "norad_id": 59947,
  "name": "STARLINK-11113 [DTC]",
  "history": [
    {
      "epoch": "2026-03-28T14:47:46.399200",
      "apogee_km": 360.65098942354143,
      "perigee_km": 358.83849923431717,
      "latitude_deg": 15.614009872765692,
      "longitude_deg": -126.11511200014502,
      "semi_major_axis_km": 6737.881744328929,
      "eccentricity": 0.0001345,
      "inclination_deg": 53.1585,
      "raan_deg": 157.5823,
      "arg_perigee_deg": 70.9606,
      "mean_anomaly_deg": 289.1557,
      "mean_motion_rev_day": 15.69703712
    }
  ]
}