{"fetched_at":"2026-03-29T16:36:15Z","count":15609,"tles":[{"name":"STARLINK-11113 [DTC]","line1":"1 59947U 24107C   26087.61650925  .00004051  00000+0  38289-4 0  9998","line2":"2 59947  53.1585 157.5823 0001345  70.9606 289.1557 15.69703712105122","category":"Starlink"}]}